ORBCOMM FM05            
1 25117U 97084F   25275.22891564  .00004799  00000+0  13648-2 0  9994
2 25117  45.0126 213.9862 0003333   2.1392 357.9473 14.46308113456101
ORBCOMM FM06            
1 25118U 97084G   25275.91060088  .00004267  00000+0  12140-2 0  9996
2 25118  45.0122 210.3252 0002468 352.6438  56.6004 14.46469738457121
ORBCOMM FM07            
1 25119U 97084H   25275.56896681  .00004978  00000+0  14091-2 0  9990
2 25119  45.0120 212.7286 0004102   7.4297 352.6615 14.46478200457062
ORBCOMM FM03            
1 25158U 98007B   25275.92578338  .00002502  00000+0  91805-3 0  9995
2 25158 107.9631 356.9603 0042668  59.6275 300.9073 14.34759710439494
ORBCOMM FM04            
1 25159U 98007C   25275.96126342  .00002512  00000+0  91864-3 0  9990
2 25159 107.9615   0.3256 0038436  56.6429 303.8381 14.35004530439686
ORBCOMM FM17            
1 25413U 98046A   25275.94612108  .00002051  00000+0  75797-3 0  9999
2 25413  44.9924 108.9650 0003013  44.3313 315.7775 14.35310138418651
ORBCOMM FM18            
1 25414U 98046B   25275.56685389  .00003593  00000+0  12021-2 0  9991
2 25414  44.9933  25.2581 0004426 127.2451 232.8801 14.38855142419718
ORBCOMM FM19            
1 25415U 98046C   25275.59999610  .00003808  00000+0  12760-2 0  9999
2 25415  44.9945  27.2668 0003166 129.4340 244.8280 14.38673090419670
