<?xml version="1.0" encoding="UTF-8"?>
<ndm xmlns:xsi="http://www.w3.org/2001/XMLSchema-instance" xsi:noNamespaceSchemaLocation="https://sanaregistry.org/r/ndmxml_unqualified/ndmxml-2.0.0-master-2.0.xsd">
<omm id="CCSDS_OMM_VERS" version="2.0">
<header><CREATION_DATE/><ORIGINATOR/></header><body><segment><metadata><OBJECT_NAME>ORBCOMM FM05</OBJECT_NAME><OBJECT_ID>1997-084F</OBJECT_ID><CENTER_NAME>EARTH</CENTER_NAME><REF_FRAME>TEME</REF_FRAME><TIME_SYSTEM>UTC</TIME_SYSTEM><MEAN_ELEMENT_THEORY>SGP4</MEAN_ELEMENT_THEORY></metadata><data><meanElements><EPOCH>2025-10-02T05:29:38.311296</EPOCH><MEAN_MOTION>14.46308113</MEAN_MOTION><ECCENTRICITY>.0003333</ECCENTRICITY><INCLINATION>45.0126</INCLINATION><RA_OF_ASC_NODE>213.9862</RA_OF_ASC_NODE><ARG_OF_PERICENTER>2.1392</ARG_OF_PERICENTER><MEAN_ANOMALY>357.9473</MEAN_ANOMALY></meanElements><tleParameters><EPHEMERIS_TYPE>0</EPHEMERIS_TYPE><CLASSIFICATION_TYPE>U</CLASSIFICATION_TYPE><NORAD_CAT_ID>25117</NORAD_CAT_ID><ELEMENT_SET_NO>999</ELEMENT_SET_NO><REV_AT_EPOCH>45610</REV_AT_EPOCH><BSTAR>.13648E-2</BSTAR><MEAN_MOTION_DOT>.4799E-4</MEAN_MOTION_DOT><MEAN_MOTION_DDOT>0</MEAN_MOTION_DDOT></tleParameters></data></segment></body></omm>
<omm id="CCSDS_OMM_VERS" version="2.0">
<header><CREATION_DATE/><ORIGINATOR/></header><body><segment><metadata><OBJECT_NAME>ORBCOMM FM06</OBJECT_NAME><OBJECT_ID>1997-084G</OBJECT_ID><CENTER_NAME>EARTH</CENTER_NAME><REF_FRAME>TEME</REF_FRAME><TIME_SYSTEM>UTC</TIME_SYSTEM><MEAN_ELEMENT_THEORY>SGP4</MEAN_ELEMENT_THEORY></metadata><data><meanElements><EPOCH>2025-10-02T21:51:15.916032</EPOCH><MEAN_MOTION>14.46469738</MEAN_MOTION><ECCENTRICITY>.00024688</ECCENTRICITY><INCLINATION>45.0122</INCLINATION><RA_OF_ASC_NODE>210.3252</RA_OF_ASC_NODE><ARG_OF_PERICENTER>352.6438</ARG_OF_PERICENTER><MEAN_ANOMALY>56.6004</MEAN_ANOMALY></meanElements><tleParameters><EPHEMERIS_TYPE>0</EPHEMERIS_TYPE><CLASSIFICATION_TYPE>U</CLASSIFICATION_TYPE><NORAD_CAT_ID>25118</NORAD_CAT_ID><ELEMENT_SET_NO>999</ELEMENT_SET_NO><REV_AT_EPOCH>45712</REV_AT_EPOCH><BSTAR>.12140476E-2</BSTAR><MEAN_MOTION_DOT>.4267E-4</MEAN_MOTION_DOT><MEAN_MOTION_DDOT>0</MEAN_MOTION_DDOT></tleParameters></data></segment></body></omm>
<omm id="CCSDS_OMM_VERS" version="2.0">
<header><CREATION_DATE/><ORIGINATOR/></header><body><segment><metadata><OBJECT_NAME>ORBCOMM FM07</OBJECT_NAME><OBJECT_ID>1997-084H</OBJECT_ID><CENTER_NAME>EARTH</CENTER_NAME><REF_FRAME>TEME</REF_FRAME><TIME_SYSTEM>UTC</TIME_SYSTEM><MEAN_ELEMENT_THEORY>SGP4</MEAN_ELEMENT_THEORY></metadata><data><meanElements><EPOCH>2025-10-02T13:39:18.732384</EPOCH><MEAN_MOTION>14.46478200</MEAN_MOTION><ECCENTRICITY>.0004102</ECCENTRICITY><INCLINATION>45.0120</INCLINATION><RA_OF_ASC_NODE>212.7286</RA_OF_ASC_NODE><ARG_OF_PERICENTER>7.4297</ARG_OF_PERICENTER><MEAN_ANOMALY>352.6615</MEAN_ANOMALY></meanElements><tleParameters><EPHEMERIS_TYPE>0</EPHEMERIS_TYPE><CLASSIFICATION_TYPE>U</CLASSIFICATION_TYPE><NORAD_CAT_ID>25119</NORAD_CAT_ID><ELEMENT_SET_NO>999</ELEMENT_SET_NO><REV_AT_EPOCH>45706</REV_AT_EPOCH><BSTAR>.14091E-2</BSTAR><MEAN_MOTION_DOT>.4978E-4</MEAN_MOTION_DOT><MEAN_MOTION_DDOT>0</MEAN_MOTION_DDOT></tleParameters></data></segment></body></omm>
<omm id="CCSDS_OMM_VERS" version="2.0">
<header><CREATION_DATE/><ORIGINATOR/></header><body><segment><metadata><OBJECT_NAME>ORBCOMM FM03</OBJECT_NAME><OBJECT_ID>1998-007B</OBJECT_ID><CENTER_NAME>EARTH</CENTER_NAME><REF_FRAME>TEME</REF_FRAME><TIME_SYSTEM>UTC</TIME_SYSTEM><MEAN_ELEMENT_THEORY>SGP4</MEAN_ELEMENT_THEORY></metadata><data><meanElements><EPOCH>2025-10-02T22:13:07.684032</EPOCH><MEAN_MOTION>14.34759710</MEAN_MOTION><ECCENTRICITY>.00426688</ECCENTRICITY><INCLINATION>107.9631</INCLINATION><RA_OF_ASC_NODE>356.9603</RA_OF_ASC_NODE><ARG_OF_PERICENTER>59.6275</ARG_OF_PERICENTER><MEAN_ANOMALY>300.9073</MEAN_ANOMALY></meanElements><tleParameters><EPHEMERIS_TYPE>0</EPHEMERIS_TYPE><CLASSIFICATION_TYPE>U</CLASSIFICATION_TYPE><NORAD_CAT_ID>25158</NORAD_CAT_ID><ELEMENT_SET_NO>999</ELEMENT_SET_NO><REV_AT_EPOCH>43949</REV_AT_EPOCH><BSTAR>.9180477E-3</BSTAR><MEAN_MOTION_DOT>.2502E-4</MEAN_MOTION_DOT><MEAN_MOTION_DDOT>0</MEAN_MOTION_DDOT></tleParameters></data></segment></body></omm>
<omm id="CCSDS_OMM_VERS" version="2.0">
<header><CREATION_DATE/><ORIGINATOR/></header><body><segment><metadata><OBJECT_NAME>ORBCOMM FM04</OBJECT_NAME><OBJECT_ID>1998-007C</OBJECT_ID><CENTER_NAME>EARTH</CENTER_NAME><REF_FRAME>TEME</REF_FRAME><TIME_SYSTEM>UTC</TIME_SYSTEM><MEAN_ELEMENT_THEORY>SGP4</MEAN_ELEMENT_THEORY></metadata><data><meanElements><EPOCH>2025-10-02T23:04:13.159488</EPOCH><MEAN_MOTION>14.35004530</MEAN_MOTION><ECCENTRICITY>.00384368</ECCENTRICITY><INCLINATION>107.9615</INCLINATION><RA_OF_ASC_NODE>0.3256</RA_OF_ASC_NODE><ARG_OF_PERICENTER>56.6429</ARG_OF_PERICENTER><MEAN_ANOMALY>303.8381</MEAN_ANOMALY></meanElements><tleParameters><EPHEMERIS_TYPE>0</EPHEMERIS_TYPE><CLASSIFICATION_TYPE>U</CLASSIFICATION_TYPE><NORAD_CAT_ID>25159</NORAD_CAT_ID><ELEMENT_SET_NO>999</ELEMENT_SET_NO><REV_AT_EPOCH>43968</REV_AT_EPOCH><BSTAR>.91864349E-3</BSTAR><MEAN_MOTION_DOT>.2512E-4</MEAN_MOTION_DOT><MEAN_MOTION_DDOT>0</MEAN_MOTION_DDOT></tleParameters></data></segment></body></omm>
<omm id="CCSDS_OMM_VERS" version="2.0">
<header><CREATION_DATE/><ORIGINATOR/></header><body><segment><metadata><OBJECT_NAME>ORBCOMM FM17</OBJECT_NAME><OBJECT_ID>1998-046A</OBJECT_ID><CENTER_NAME>EARTH</CENTER_NAME><REF_FRAME>TEME</REF_FRAME><TIME_SYSTEM>UTC</TIME_SYSTEM><MEAN_ELEMENT_THEORY>SGP4</MEAN_ELEMENT_THEORY></metadata><data><meanElements><EPOCH>2025-10-02T22:42:24.861312</EPOCH><MEAN_MOTION>14.35310138</MEAN_MOTION><ECCENTRICITY>.00030139</ECCENTRICITY><INCLINATION>44.9924</INCLINATION><RA_OF_ASC_NODE>108.9650</RA_OF_ASC_NODE><ARG_OF_PERICENTER>44.3313</ARG_OF_PERICENTER><MEAN_ANOMALY>315.7775</MEAN_ANOMALY></meanElements><tleParameters><EPHEMERIS_TYPE>0</EPHEMERIS_TYPE><CLASSIFICATION_TYPE>U</CLASSIFICATION_TYPE><NORAD_CAT_ID>25413</NORAD_CAT_ID><ELEMENT_SET_NO>999</ELEMENT_SET_NO><REV_AT_EPOCH>41865</REV_AT_EPOCH><BSTAR>.75796501E-3</BSTAR><MEAN_MOTION_DOT>.2051E-4</MEAN_MOTION_DOT><MEAN_MOTION_DDOT>0</MEAN_MOTION_DDOT></tleParameters></data></segment></body></omm>
<omm id="CCSDS_OMM_VERS" version="2.0">
<header><CREATION_DATE/><ORIGINATOR/></header><body><segment><metadata><OBJECT_NAME>ORBCOMM FM18</OBJECT_NAME><OBJECT_ID>1998-046B</OBJECT_ID><CENTER_NAME>EARTH</CENTER_NAME><REF_FRAME>TEME</REF_FRAME><TIME_SYSTEM>UTC</TIME_SYSTEM><MEAN_ELEMENT_THEORY>SGP4</MEAN_ELEMENT_THEORY></metadata><data><meanElements><EPOCH>2025-10-02T13:36:16.176096</EPOCH><MEAN_MOTION>14.38855142</MEAN_MOTION><ECCENTRICITY>.0004426</ECCENTRICITY><INCLINATION>44.9933</INCLINATION><RA_OF_ASC_NODE>25.2581</RA_OF_ASC_NODE><ARG_OF_PERICENTER>127.2451</ARG_OF_PERICENTER><MEAN_ANOMALY>232.8801</MEAN_ANOMALY></meanElements><tleParameters><EPHEMERIS_TYPE>0</EPHEMERIS_TYPE><CLASSIFICATION_TYPE>U</CLASSIFICATION_TYPE><NORAD_CAT_ID>25414</NORAD_CAT_ID><ELEMENT_SET_NO>999</ELEMENT_SET_NO><REV_AT_EPOCH>41971</REV_AT_EPOCH><BSTAR>.12021E-2</BSTAR><MEAN_MOTION_DOT>.3593E-4</MEAN_MOTION_DOT><MEAN_MOTION_DDOT>0</MEAN_MOTION_DDOT></tleParameters></data></segment></body></omm>
<omm id="CCSDS_OMM_VERS" version="2.0">
<header><CREATION_DATE/><ORIGINATOR/></header><body><segment><metadata><OBJECT_NAME>ORBCOMM FM19</OBJECT_NAME><OBJECT_ID>1998-046C</OBJECT_ID><CENTER_NAME>EARTH</CENTER_NAME><REF_FRAME>TEME</REF_FRAME><TIME_SYSTEM>UTC</TIME_SYSTEM><MEAN_ELEMENT_THEORY>SGP4</MEAN_ELEMENT_THEORY></metadata><data><meanElements><EPOCH>2025-10-02T14:23:59.663040</EPOCH><MEAN_MOTION>14.38673090</MEAN_MOTION><ECCENTRICITY>.0003166</ECCENTRICITY><INCLINATION>44.9945</INCLINATION><RA_OF_ASC_NODE>27.2668</RA_OF_ASC_NODE><ARG_OF_PERICENTER>129.4340</ARG_OF_PERICENTER><MEAN_ANOMALY>244.8280</MEAN_ANOMALY></meanElements><tleParameters><EPHEMERIS_TYPE>0</EPHEMERIS_TYPE><CLASSIFICATION_TYPE>U</CLASSIFICATION_TYPE><NORAD_CAT_ID>25415</NORAD_CAT_ID><ELEMENT_SET_NO>999</ELEMENT_SET_NO><REV_AT_EPOCH>41967</REV_AT_EPOCH><BSTAR>.1276E-2</BSTAR><MEAN_MOTION_DOT>.3808E-4</MEAN_MOTION_DOT><MEAN_MOTION_DDOT>0</MEAN_MOTION_DDOT></tleParameters></data></segment></body></omm>

</ndm>
